{
  "type": "FeatureCollection",
  "features": [
    {
      "type": "Feature",
      "properties": {
        "norad_id": 30805,
        "name": "FENGYUN 1C DEB",
        "group": "fengyun-1c-debris",
        "lat": 54.58499775010897,
        "lon": 11.379369669742402,
        "alt_km": 900.003886255733,
        "timestamp": "2025-12-07T03:52:32.776047+00:00",
        "meta_object_name": "FENGYUN 1C DEB",
        "meta_object_id": "1999-025AUP",
        "meta_epoch": "2025-12-05T21:39:27.622656",
        "meta_mean_motion": 14.02870404,
        "meta_eccentricity": 0.00692165,
        "meta_inclination": 98.8211,
        "meta_ra_of_asc_node": 22.7736,
        "meta_arg_of_pericenter": 303.6261,
        "meta_mean_anomaly": 235.973,
        "meta_ephemeris_type": 0,
        "meta_classification_type": "U",
        "meta_norad_cat_id": 30805,
        "meta_element_set_no": 999,
        "meta_rev_at_epoch": 95864,
        "meta_bstar": 0.0010237302,
        "meta_mean_motion_dot": 1.576e-05,
        "meta_mean_motion_ddot": 0,
        "tle_line1": "1 30805U 99025AUP 25339.90240304  .00001576  00000+0  10237-2 0  9998",
        "tle_line2": "2 30805  98.8211  22.7736 0069216 303.6261 235.9730 14.02870404958640"
      },
      "geometry": {
        "type": "Point",
        "coordinates": [
          11.379369669742402,
          54.58499775010897
        ]
      }
    },
    {
      "type": "Feature",
      "properties": {
        "norad_id": 30806,
        "name": "FENGYUN 1C DEB",
        "group": "fengyun-1c-debris",
        "lat": -1.194563714018994,
        "lon": 8.216549546058994,
        "alt_km": 1163.916647728981,
        "timestamp": "2025-12-07T03:52:32.776057+00:00",
        "meta_object_name": "FENGYUN 1C DEB",
        "meta_object_id": "1999-025AUQ",
        "meta_epoch": "2025-12-06T12:52:53.893632",
        "meta_mean_motion": 13.70403207,
        "meta_eccentricity": 0.02687402,
        "meta_inclination": 99.0369,
        "meta_ra_of_asc_node": 7.4386,
        "meta_arg_of_pericenter": 146.6144,
        "meta_mean_anomaly": 13.4768,
        "meta_ephemeris_type": 0,
        "meta_classification_type": "U",
        "meta_norad_cat_id": 30806,
        "meta_element_set_no": 999,
        "meta_rev_at_epoch": 93610,
        "meta_bstar": 0.0012176938,
        "meta_mean_motion_dot": 1.35e-05,
        "meta_mean_motion_ddot": 0,
        "tle_line1": "1 30806U 99025AUQ 25340.53673488  .00001350  00000+0  12177-2 0  9998",
        "tle_line2": "2 30806  99.0369   7.4386 0268740 146.6144  13.4768 13.70403207936101"
      },
      "geometry": {
        "type": "Point",
        "coordinates": [
          8.216549546058994,
          -1.194563714018994
        ]
      }
    },
    {
      "type": "Feature",
      "properties": {
        "norad_id": 30809,
        "name": "FENGYUN 1C DEB",
        "group": "fengyun-1c-debris",
        "lat": 69.88173989774067,
        "lon": 45.17122501700712,
        "alt_km": 803.9493554497403,
        "timestamp": "2025-12-07T03:52:32.776067+00:00",
        "meta_object_name": "FENGYUN 1C DEB",
        "meta_object_id": "1999-025AUT",
        "meta_epoch": "2025-12-06T12:24:55.322208",
        "meta_mean_motion": 14.29137422,
        "meta_eccentricity": 0.00524783,
        "meta_inclination": 98.7899,
        "meta_ra_of_asc_node": 69.5077,
        "meta_arg_of_pericenter": 189.4605,
        "meta_mean_anomaly": 170.5593,
        "meta_ephemeris_type": 0,
        "meta_classification_type": "U",
        "meta_norad_cat_id": 30809,
        "meta_element_set_no": 999,
        "meta_rev_at_epoch": 96998,
        "meta_bstar": 0.0034046086,
        "meta_mean_motion_dot": 8.73e-05,
        "meta_mean_motion_ddot": 0,
        "tle_line1": "1 30809U 99025AUT 25340.51730697  .00008730  00000+0  34046-2 0  9993",
        "tle_line2": "2 30809  98.7899  69.5077 0052478 189.4605 170.5593 14.29137422969981"
      },
      "geometry": {
        "type": "Point",
        "coordinates": [
          45.17122501700712,
          69.88173989774067
        ]
      }
    },
    {
      "type": "Feature",
      "properties": {
        "norad_id": 30810,
        "name": "FENGYUN 1C DEB",
        "group": "fengyun-1c-debris",
        "lat": -62.22555354757636,
        "lon": -43.46631928071323,
        "alt_km": 1016.1056340505293,
        "timestamp": "2025-12-07T03:52:32.776078+00:00",
        "meta_object_name": "FENGYUN 1C DEB",
        "meta_object_id": "1999-025AUU",
        "meta_epoch": "2025-12-06T04:29:48.837984",
        "meta_mean_motion": 14.04059869,
        "meta_eccentricity": 0.01797152,
        "meta_inclination": 98.6633,
        "meta_ra_of_asc_node": 152.4313,
        "meta_arg_of_pericenter": 73.8287,
        "meta_mean_anomaly": 288.2577,
        "meta_ephemeris_type": 0,
        "meta_classification_type": "U",
        "meta_norad_cat_id": 30810,
        "meta_element_set_no": 999,
        "meta_rev_at_epoch": 94291,
        "meta_bstar": 0.0045124213,
        "meta_mean_motion_dot": 8.213e-05,
        "meta_mean_motion_ddot": 0,
        "tle_line1": "1 30810U 99025AUU 25340.18737081  .00008213  00000+0  45124-2 0  9997",
        "tle_line2": "2 30810  98.6633 152.4313 0179715  73.8287 288.2577 14.04059869942913"
      },
      "geometry": {
        "type": "Point",
        "coordinates": [
          -43.46631928071323,
          -62.22555354757636
        ]
      }
    },
    {
      "type": "Feature",
      "properties": {
        "norad_id": 30811,
        "name": "FENGYUN 1C DEB",
        "group": "fengyun-1c-debris",
        "lat": -64.65869629700978,
        "lon": 40.12358048793039,
        "alt_km": 1156.506055431002,
        "timestamp": "2025-12-07T03:52:32.776088+00:00",
        "meta_object_name": "FENGYUN 1C DEB",
        "meta_object_id": "1999-025AUV",
        "meta_epoch": "2025-12-05T15:10:20.133408",
        "meta_mean_motion": 13.61812035,
        "meta_eccentricity": 0.02788121,
        "meta_inclination": 98.7823,
        "meta_ra_of_asc_node": 19.6936,
        "meta_arg_of_pericenter": 64.7977,
        "meta_mean_anomaly": 298.1798,
        "meta_ephemeris_type": 0,
        "meta_classification_type": "U",
        "meta_norad_cat_id": 30811,
        "meta_element_set_no": 999,
        "meta_rev_at_epoch": 92770,
        "meta_bstar": 0.0029114944,
        "meta_mean_motion_dot": 2.864e-05,
        "meta_mean_motion_ddot": 0,
        "tle_line1": "1 30811U 99025AUV 25339.63217747  .00002864  00000+0  29115-2 0  9996",
        "tle_line2": "2 30811  98.7823  19.6936 0278812  64.7977 298.1798 13.61812035927703"
      },
      "geometry": {
        "type": "Point",
        "coordinates": [
          40.12358048793039,
          -64.65869629700978
        ]
      }
    },
    {
      "type": "Feature",
      "properties": {
        "norad_id": 30814,
        "name": "FENGYUN 1C DEB",
        "group": "fengyun-1c-debris",
        "lat": 6.592774294678706,
        "lon": 138.08710570352468,
        "alt_km": 690.097343499905,
        "timestamp": "2025-12-07T03:52:32.776099+00:00",
        "meta_object_name": "FENGYUN 1C DEB",
        "meta_object_id": "1999-025AUY",
        "meta_epoch": "2025-12-05T21:43:45.563808",
        "meta_mean_motion": 14.60139115,
        "meta_eccentricity": 0.00307122,
        "meta_inclination": 99.0818,
        "meta_ra_of_asc_node": 315.6528,
        "meta_arg_of_pericenter": 255.2113,
        "meta_mean_anomaly": 159.33,
        "meta_ephemeris_type": 0,
        "meta_classification_type": "U",
        "meta_norad_cat_id": 30814,
        "meta_element_set_no": 999,
        "meta_rev_at_epoch": 97642,
        "meta_bstar": 0.0045600639,
        "meta_mean_motion_dot": 0.00022107,
        "meta_mean_motion_ddot": 0,
        "tle_line1": "1 30814U 99025AUY 25339.90538847  .00022107  00000+0  45601-2 0  9996",
        "tle_line2": "2 30814  99.0818 315.6528 0030712 255.2113 159.3300 14.60139115976425"
      },
      "geometry": {
        "type": "Point",
        "coordinates": [
          138.08710570352468,
          6.592774294678706
        ]
      }
    },
    {
      "type": "Feature",
      "properties": {
        "norad_id": 30815,
        "name": "FENGYUN 1C DEB",
        "group": "fengyun-1c-debris",
        "lat": -62.758013233594106,
        "lon": 154.8227200329391,
        "alt_km": 656.8121160443407,
        "timestamp": "2025-12-07T03:52:32.776110+00:00",
        "meta_object_name": "FENGYUN 1C DEB",
        "meta_object_id": "1999-025AUZ",
        "meta_epoch": "2025-12-05T21:54:21.651840",
        "meta_mean_motion": 14.73021587,
        "meta_eccentricity": 0.0002353,
        "meta_inclination": 99.3012,
        "meta_ra_of_asc_node": 134.8329,
        "meta_arg_of_pericenter": 272.5721,
        "meta_mean_anomaly": 244.9135,
        "meta_ephemeris_type": 0,
        "meta_classification_type": "U",
        "meta_norad_cat_id": 30815,
        "meta_element_set_no": 999,
        "meta_rev_at_epoch": 97679,
        "meta_bstar": 0.0058213938,
        "meta_mean_motion_dot": 0.00037554,
        "meta_mean_motion_ddot": 0,
        "tle_line1": "1 30815U 99025AUZ 25339.91275060  .00037554  00000+0  58214-2 0  9999",
        "tle_line2": "2 30815  99.3012 134.8329 0002353 272.5721 244.9135 14.73021587976796"
      },
      "geometry": {
        "type": "Point",
        "coordinates": [
          154.8227200329391,
          -62.758013233594106
        ]
      }
    }
  ]
}